From: horizons@ssd.jpl.nasa.gov (Horizons Ephemeris System)
Subject: [Horizons] SMALL BODY #C(500@10)_T(249P/LINEAR) (1/1)
Date: March 1, 2021 at 1:23:04 PM PST

Automated mail xmit by MAIL_REQUEST, PID= 2301 Mon Mar  1 13:23:03 2021
++++++++++++++++++++++++++++++++ (part 1 of 1)  +++++++++++++++++++++++++++++++
*******************************************************************************
JPL/HORIZONS                     249P/LINEAR               2021-Mar-01 13:23:03
Rec #:90001161 (+COV) Soln.date: 2021-Jan-30_21:13:01    # obs: 867 (2006-2021)

IAU76/J2000 helio. ecliptic osc. elements (au, days, deg., period=Julian yrs):

 EPOCH=  2456812.5 ! 2014-Jun-04.0000000 (TDB)    RMSW= n.a.
  EC= .8183256633459267   QR= .5034369705622334   TP= 2457353.4017022653
  OM= 240.0164808208808   W= 64.62667876075373    IN= 8.404533159206611
  A= 2.771095686017719    MA= 244.4299932239356   ADIST= 5.038754401473206
  PER= 4.613021701552     N= .213661749           ANGMOM= .016458484
  DAN= .67775             DDN= 1.40977            L= 304.4028186
  B= 7.5887544            MOID= .0490851          TP= 2015-Nov-26.9017022653

Comet physical (GM= km^3/s^2; RAD= km):
  GM= n.a.                RAD= n.a.
  M1=  18.3     M2=  n.a.     k1=  4.5    k2= n.a.     PHCOF= n.a.

Comet non-gravitational force model (AMRAT=m^2/kg;A1-A3=au/d^2;DT=days;R0=au):
  AMRAT=  0.                                      DT=  0.
  A1= -2.863816684112E-11 A2= -7.485397509299E-13 A3= 0.
Standard model:
  ALN=  .1112620426   NK=  4.6142   NM=  2.15     NN=  5.093    R0=  2.808

COMET comments 
1: soln ref.= JPL#44, data arc: 2006-10-19 to 2021-01-18
2: k1=4.5;
*******************************************************************************


*******************************************************************************
Ephemeris / MAIL_REQUEST Mon Mar  1 13:23:03 2021 Pasadena, USA  / Horizons
*******************************************************************************
Target body name: 249P/LINEAR                     {source: JPL#44}
Center body name: Sun (10)                        {source: DE431}
Center-site name: BODY CENTER
*******************************************************************************
Start time      : A.D. 1990-Jan-01 00:00:00.0000 TDB
Stop  time      : A.D. 2020-Dec-31 00:00:00.0000 TDB
Step-size       : 10080 minutes
*******************************************************************************
Center geodetic : 0.00000000,0.00000000,0.0000000 {E-lon(deg),Lat(deg),Alt(km)}
Center cylindric: 0.00000000,0.00000000,0.0000000 {E-lon(deg),Dxy(km),Dz(km)}
Center radii    : 696000.0 x 696000.0 x 696000.0 k{Equator, meridian, pole}    
Small perturbers: Yes                             {source: SB431-N16}
Output units    : AU-D
Output type     : GEOMETRIC cartesian states
Output format   : 6 (LT, range, and range-rate)
Reference frame : Ecliptic of J2000.0
*******************************************************************************
Initial IAU76/J2000 heliocentric ecliptic osculating elements (au, days, deg.):
 EPOCH=  2456812.5 ! 2014-Jun-04.0000000 (TDB)    RMSW= n.a.                  
  EC= .8183256633459267   QR= .5034369705622334   TP= 2457353.4017022653      
  OM= 240.0164808208808   W= 64.62667876075373    IN= 8.404533159206611       
 Equivalent ICRF heliocentric equatorial cartesian coordinates (au, au/d):
  X=-3.293280200655361E+00  Y= 3.135878015374041E+00  Z= 6.479212229214732E-01
 VX=-2.793959910666207E-04 VY=-4.415127644597219E-03 VZ=-1.576689445488295E-03
Comet physical (GM= km^3/s^2; RAD= km):                                        
  GM= n.a.                RAD= n.a.                                           
  M1=  18.3     M2=  n.a.     k1=  4.5    k2= n.a.     PHCOF= n.a.            
Comet non-gravitational force model (AMRAT=m^2/kg;A1-A3=au/d^2;DT=days;R0=au): 
  AMRAT=  0.                                      DT=  0.                     
  A1= -2.863816684112E-11 A2= -7.485397509299E-13 A3= 0.                      
Standard model:                                                               
  ALN=  .1112620426   NK=  4.6142   NM=  2.15     NN=  5.093    R0=  2.808    
*******************************************************************************
           JDTDB,            Calendar Date (TDB),                     LT,                     RG,                     RR,
**************************************************************************************************************************
$$SOE
2451896.500000000, A.D. 2000-Dec-18 00:00:00.0000,  2.311889839102115E-02,  4.002913169746443E+00, -4.905305071895362E-03,
2451903.500000000, A.D. 2000-Dec-25 00:00:00.0000,  2.291855962488996E-02,  3.968225587674246E+00, -5.005680317260212E-03,
2451910.500000000, A.D. 2001-Jan-01 00:00:00.0000,  2.271413236359224E-02,  3.932830104608253E+00, -5.107573113194336E-03,
2451917.500000000, A.D. 2001-Jan-08 00:00:00.0000,  2.250555394458880E-02,  3.896715870866129E+00, -5.211048838781099E-03,
2451924.500000000, A.D. 2001-Jan-15 00:00:00.0000,  2.229275899050480E-02,  3.859871566706322E+00, -5.316176482927636E-03,
2451931.500000000, A.D. 2001-Jan-22 00:00:00.0000,  2.207567925362294E-02,  3.822285375402893E+00, -5.423029164038366E-03,
2451938.500000000, A.D. 2001-Jan-29 00:00:00.0000,  2.185424343388177E-02,  3.783944951732888E+00, -5.531684877507864E-03,
2451945.500000000, A.D. 2001-Feb-05 00:00:00.0000,  2.162837697853753E-02,  3.744837387288877E+00, -5.642226306083065E-03,
2451952.500000000, A.D. 2001-Feb-12 00:00:00.0000,  2.139800193018678E-02,  3.704949184164875E+00, -5.754738988272721E-03,
2451959.500000000, A.D. 2001-Feb-19 00:00:00.0000,  2.116303680096374E-02,  3.664266233174297E+00, -5.869312602667067E-03,
2451966.500000000, A.D. 2001-Feb-26 00:00:00.0000,  2.092339634463149E-02,  3.622773774388762E+00, -5.986043589835969E-03,
2451973.500000000, A.D. 2001-Mar-05 00:00:00.0000,  2.067899127549294E-02,  3.580456348469047E+00, -6.105035278647718E-03,
2451980.500000000, A.D. 2001-Mar-12 00:00:00.0000,  2.042972799385782E-02,  3.537297749131158E+00, -6.226397788271105E-03,
2451987.500000000, A.D. 2001-Mar-19 00:00:00.0000,  2.017550830435060E-02,  3.493280974372870E+00, -6.350248441829701E-03,
2451994.500000000, A.D. 2001-Mar-26 00:00:00.0000,  1.991622911228460E-02,  3.448388173902529E+00, -6.476712398808356E-03,
2452001.500000000, A.D. 2001-Apr-02 00:00:00.0000,  1.965178209249628E-02,  3.402600591799481E+00, -6.605923377526090E-03,
2452008.500000000, A.D. 2001-Apr-09 00:00:00.0000,  1.938205332732558E-02,  3.355898503832325E+00, -6.738024464492350E-03,
2452015.500000000, A.D. 2001-Apr-16 00:00:00.0000,  1.910692290902725E-02,  3.308261148618552E+00, -6.873169085348454E-03,
2452022.500000000, A.D. 2001-Apr-23 00:00:00.0000,  1.882626449685457E-02,  3.259666650935977E+00, -7.011522306084055E-03,
2452029.500000000, A.D. 2001-Apr-30 00:00:00.0000,  1.853994481618294E-02,  3.210091934998681E+00, -7.153262250884206E-03,
2452036.500000000, A.D. 2001-May-07 00:00:00.0000,  1.824782312651489E-02,  3.159512632344928E+00, -7.298579898098919E-03,
2452043.500000000, A.D. 2001-May-14 00:00:00.0000,  1.794975072058974E-02,  3.107902995110691E+00, -7.447678651636776E-03,
2452050.500000000, A.D. 2001-May-21 00:00:00.0000,  1.764557036039781E-02,  3.055235798378543E+00, -7.600777823209161E-03,
2452057.500000000, A.D. 2001-May-28 00:00:00.0000,  1.733511556908054E-02,  3.001482217573955E+00, -7.758115367291357E-03,
2452064.500000000, A.D. 2001-Jun-04 00:00:00.0000,  1.701820985526638E-02,  2.946611694163233E+00, -7.919948931559291E-03,
2452071.500000000, A.D. 2001-Jun-11 00:00:00.0000,  1.669466588967199E-02,  2.890591793086427E+00, -8.086557313353400E-03,
2452078.500000000, A.D. 2001-Jun-18 00:00:00.0000,  1.636428461160814E-02,  2.833388048053616E+00, -8.258242420307569E-03,
2452085.500000000, A.D. 2001-Jun-25 00:00:00.0000,  1.602685425025368E-02,  2.774963792083761E+00, -8.435331502980077E-03,
2452092.500000000, A.D. 2001-Jul-02 00:00:00.0000,  1.568214925160439E-02,  2.715279971711656E+00, -8.618179583630703E-03,
2452099.500000000, A.D. 2001-Jul-09 00:00:00.0000,  1.532992910341147E-02,  2.654294943532327E+00, -8.807172077713856E-03,
2452106.500000000, A.D. 2001-Jul-16 00:00:00.0000,  1.496993704927577E-02,  2.591964251553355E+00, -9.002727676130740E-03,
2452113.500000000, A.D. 2001-Jul-23 00:00:00.0000,  1.460189867876595E-02,  2.528240383081406E+00, -9.205301592703479E-03,
2452120.500000000, A.D. 2001-Jul-30 00:00:00.0000,  1.422552038931025E-02,  2.463072502407040E+00, -9.415388331559188E-03,
2452127.500000000, A.D. 2001-Aug-06 00:00:00.0000,  1.384048778442592E-02,  2.396406173466736E+00, -9.633521970455087E-03,
2452134.500000000, A.D. 2001-Aug-13 00:00:00.0000,  1.344646406365929E-02,  2.328183081069661E+00, -9.860277257681384E-03,
2452141.500000000, A.D. 2001-Aug-20 00:00:00.0000,  1.304308831832842E-02,  2.258340735814649E+00, -1.009627225553561E-02,
2452148.500000000, A.D. 2001-Aug-27 00:00:00.0000,  1.262997379568312E-02,  2.186812173538836E+00, -1.034216671836960E-02,
2452155.500000000, A.D. 2001-Sep-03 00:00:00.0000,  1.220670632654189E-02,  2.113525683071422E+00, -1.059865570568290E-02,
2452162.500000000, A.D. 2001-Sep-10 00:00:00.0000,  1.177284312316905E-02,  2.038404598092561E+00, -1.086645714904008E-02,
2452169.500000000, A.D. 2001-Sep-17 00:00:00.0000,  1.132791226982424E-02,  1.961367208924738E+00, -1.114628911318457E-02,
2452176.500000000, A.D. 2001-Sep-24 00:00:00.0000,  1.087141345187642E-02,  1.882326888774937E+00, -1.143882981639300E-02,
2452183.500000000, A.D. 2001-Oct-01 00:00:00.0000,  1.040282083038801E-02,  1.801192591453468E+00, -1.174464906865973E-02,
2452190.500000000, A.D. 2001-Oct-08 00:00:00.0000,  9.921589569824869E-03,  1.717869981611901E+00, -1.206409202557868E-02,
2452197.500000000, A.D. 2001-Oct-15 00:00:00.0000,  9.427168549485049E-03,  1.632263635658740E+00, -1.239708244109717E-02,
